ONEWEB-0716             
1 55177U 23004AP  26020.27337205  .00000039  00000+0  67244-4 0  9991
2 55177  87.9083  35.2658 0001685  85.0513 275.0811 13.17649493148108
ONEWEB-0717             
1 55178U 23004AQ  26020.33243601  .00000000  00000+0 -33976-4 0  9999
2 55178  87.9095  35.2286 0002452 100.1909 259.9499 13.17649067148166
ONEWEB-0719             
1 55179U 23004AR  26020.26663145  .00000097  00000+0  21625-3 0  9993
2 55179  87.9094  35.2239 0001867  85.5801 274.5544 13.17648725148108
ONEWEB-0530             
1 55796U 23029A   26020.21320383  .00000110  00000+0  23897-3 0  9993
2 55796  87.9227 304.0044 0002215  78.6713 281.4670 13.20772009141618
ONEWEB-0534             
1 55797U 23029B   26020.27634072  .00000105  00000+0  22747-3 0  9990
2 55797  87.9224 303.9913 0001661  72.2943 287.8372 13.20772711141628
ONEWEB-0556             
1 55798U 23029C   26020.28264422  .00000075  00000+0  15340-3 0  9997
2 55798  87.9226 303.9914 0002230  53.2873 306.8465 13.20771203141626
ONEWEB-0562             
1 55799U 23029D   26020.27002274  .00000131  00000+0  29106-3 0  9990
2 55799  87.9224 303.9749 0002556  71.4640 288.6771 13.20772461141620
ONEWEB-0563             
1 55800U 23029E   26020.26371164  .00000125  00000+0  27537-3 0  9998
2 55800  87.9227 304.0055 0001595  67.3336 292.7966 13.20772999141613
